IRIDIUM 136             
1 42962U 17061H   23247.79600425  .00000071  00000+0  18379-4 0  9998
2 42962  86.3916  90.0337 0002204  93.6155 266.5293 14.34213350309154
